{
  "type": "FeatureCollection",
  "features": [
    {
      "type": "Feature",
      "properties": {
        "norad_id": 35073,
        "name": "COSMOS 2251 DEB",
        "group": "cosmos-2251-debris",
        "lat": 5.826486455389151,
        "lon": 134.52170529919255,
        "alt_km": 568.9967429656153,
        "timestamp": "2025-12-19T18:58:41.981972+00:00",
        "meta_object_name": "COSMOS 2251 DEB",
        "meta_object_id": "1993-036AJC",
        "meta_epoch": "2025-12-15T05:25:47.046144",
        "meta_mean_motion": 15.00831653,
        "meta_eccentricity": 0.00109074,
        "meta_inclination": 73.9997,
        "meta_ra_of_asc_node": 325.5063,
        "meta_arg_of_pericenter": 67.0121,
        "meta_mean_anomaly": 293.2216,
        "meta_ephemeris_type": 0,
        "meta_classification_type": "U",
        "meta_norad_cat_id": 35073,
        "meta_element_set_no": 999,
        "meta_rev_at_epoch": 67516,
        "meta_bstar": 0.001951072,
        "meta_mean_motion_dot": 0.00024882,
        "meta_mean_motion_ddot": 0,
        "tle_line1": "1 35073U 93036AJC 25349.22623896  .00024882  00000+0  19511-2 0  9992",
        "tle_line2": "2 35073  73.9997 325.5063 0010907  67.0121 293.2216 15.00831653675164"
      },
      "geometry": {
        "type": "Point",
        "coordinates": [
          134.52170529919255,
          5.826486455389151
        ]
      }
    },
    {
      "type": "Feature",
      "properties": {
        "norad_id": 35284,
        "name": "COSMOS 2251 DEB",
        "group": "cosmos-2251-debris",
        "lat": 60.83721820294174,
        "lon": 40.608365154190906,
        "alt_km": 768.0685691486397,
        "timestamp": "2025-12-19T18:58:41.981982+00:00",
        "meta_object_name": "COSMOS 2251 DEB",
        "meta_object_id": "1993-036AJN",
        "meta_epoch": "2025-12-19T04:07:24.727008",
        "meta_mean_motion": 14.38324818,
        "meta_eccentricity": 0.00170281,
        "meta_inclination": 74.0487,
        "meta_ra_of_asc_node": 252.5806,
        "meta_arg_of_pericenter": 328.0961,
        "meta_mean_anomaly": 182.8808,
        "meta_ephemeris_type": 0,
        "meta_classification_type": "U",
        "meta_norad_cat_id": 35284,
        "meta_element_set_no": 999,
        "meta_rev_at_epoch": 65618,
        "meta_bstar": 0.00012763531,
        "meta_mean_motion_dot": 3.63e-06,
        "meta_mean_motion_ddot": 0,
        "tle_line1": "1 35284U 93036AJN 25353.17181397  .00000363  00000+0  12764-3 0  9992",
        "tle_line2": "2 35284  74.0487 252.5806 0017028 328.0961 182.8808 14.38324818656182"
      },
      "geometry": {
        "type": "Point",
        "coordinates": [
          40.608365154190906,
          60.83721820294174
        ]
      }
    },
    {
      "type": "Feature",
      "properties": {
        "norad_id": 35287,
        "name": "COSMOS 2251 DEB",
        "group": "cosmos-2251-debris",
        "lat": -57.11753193604863,
        "lon": 109.47146356473657,
        "alt_km": 783.0677053484951,
        "timestamp": "2025-12-19T18:58:41.981992+00:00",
        "meta_object_name": "COSMOS 2251 DEB",
        "meta_object_id": "1993-036AJR",
        "meta_epoch": "2025-12-18T18:36:06.291648",
        "meta_mean_motion": 14.36381513,
        "meta_eccentricity": 0.00178372,
        "meta_inclination": 74.0304,
        "meta_ra_of_asc_node": 265.0457,
        "meta_arg_of_pericenter": 0.3863,
        "meta_mean_anomaly": 30.6071,
        "meta_ephemeris_type": 0,
        "meta_classification_type": "U",
        "meta_norad_cat_id": 35287,
        "meta_element_set_no": 999,
        "meta_rev_at_epoch": 86979,
        "meta_bstar": 0.00010603827,
        "meta_mean_motion_dot": 2.85e-06,
        "meta_mean_motion_ddot": 0,
        "tle_line1": "1 35287U 93036AJR 25352.77507282  .00000285  00000+0  10604-3 0  9999",
        "tle_line2": "2 35287  74.0304 265.0457 0017837   0.3863  30.6071 14.36381513869791"
      },
      "geometry": {
        "type": "Point",
        "coordinates": [
          109.47146356473657,
          -57.11753193604863
        ]
      }
    },
    {
      "type": "Feature",
      "properties": {
        "norad_id": 35288,
        "name": "COSMOS 2251 DEB",
        "group": "cosmos-2251-debris",
        "lat": 47.281956880471924,
        "lon": 19.695268384011424,
        "alt_km": 698.4079843365507,
        "timestamp": "2025-12-19T18:58:41.982002+00:00",
        "meta_object_name": "COSMOS 2251 DEB",
        "meta_object_id": "1993-036AJS",
        "meta_epoch": "2025-12-18T09:59:01.456512",
        "meta_mean_motion": 14.6551495,
        "meta_eccentricity": 0.00391709,
        "meta_inclination": 73.9507,
        "meta_ra_of_asc_node": 4.189,
        "meta_arg_of_pericenter": 236.8984,
        "meta_mean_anomaly": 122.8422,
        "meta_ephemeris_type": 0,
        "meta_classification_type": "U",
        "meta_norad_cat_id": 35288,
        "meta_element_set_no": 999,
        "meta_rev_at_epoch": 87961,
        "meta_bstar": 0.00084957845,
        "meta_mean_motion_dot": 4.628e-05,
        "meta_mean_motion_ddot": 0,
        "tle_line1": "1 35288U 93036AJS 25352.41598908  .00004628  00000+0  84958-3 0  9994",
        "tle_line2": "2 35288  73.9507   4.1890 0039170 236.8984 122.8422 14.65514950879613"
      },
      "geometry": {
        "type": "Point",
        "coordinates": [
          19.695268384011424,
          47.281956880471924
        ]
      }
    },
    {
      "type": "Feature",
      "properties": {
        "norad_id": 35290,
        "name": "COSMOS 2251 DEB",
        "group": "cosmos-2251-debris",
        "lat": -10.51586574678524,
        "lon": 42.457424901445314,
        "alt_km": 632.6127213443206,
        "timestamp": "2025-12-19T18:58:41.982012+00:00",
        "meta_object_name": "COSMOS 2251 DEB",
        "meta_object_id": "1993-036AJU",
        "meta_epoch": "2025-12-18T10:35:37.740192",
        "meta_mean_motion": 14.80538668,
        "meta_eccentricity": 0.00017523,
        "meta_inclination": 74.0053,
        "meta_ra_of_asc_node": 48.1735,
        "meta_arg_of_pericenter": 190.3211,
        "meta_mean_anomaly": 169.793,
        "meta_ephemeris_type": 0,
        "meta_classification_type": "U",
        "meta_norad_cat_id": 35290,
        "meta_element_set_no": 999,
        "meta_rev_at_epoch": 88042,
        "meta_bstar": 0.0015865438,
        "meta_mean_motion_dot": 0.00012147,
        "meta_mean_motion_ddot": 0,
        "tle_line1": "1 35290U 93036AJU 25352.44140903  .00012147  00000+0  15865-2 0  9993",
        "tle_line2": "2 35290  74.0053  48.1735 0001752 190.3211 169.7930 14.80538668880426"
      },
      "geometry": {
        "type": "Point",
        "coordinates": [
          42.457424901445314,
          -10.51586574678524
        ]
      }
    },
    {
      "type": "Feature",
      "properties": {
        "norad_id": 35432,
        "name": "COSMOS 2251 DEB",
        "group": "cosmos-2251-debris",
        "lat": -49.61797926990437,
        "lon": -159.63748421675797,
        "alt_km": 501.2250956749631,
        "timestamp": "2025-12-19T18:58:41.982022+00:00",
        "meta_object_name": "COSMOS 2251 DEB",
        "meta_object_id": "1993-036AKA",
        "meta_epoch": "2025-12-19T06:55:58.336896",
        "meta_mean_motion": 15.23987911,
        "meta_eccentricity": 0.00124391,
        "meta_inclination": 74.0214,
        "meta_ra_of_asc_node": 1.7334,
        "meta_arg_of_pericenter": 330.4221,
        "meta_mean_anomaly": 29.6273,
        "meta_ephemeris_type": 0,
        "meta_classification_type": "U",
        "meta_norad_cat_id": 35432,
        "meta_element_set_no": 999,
        "meta_rev_at_epoch": 87603,
        "meta_bstar": 0.0023120453,
        "meta_mean_motion_dot": 0.00056512,
        "meta_mean_motion_ddot": 0,
        "tle_line1": "1 35432U 93036AKA 25353.28886964  .00056512  00000+0  23120-2 0  9995",
        "tle_line2": "2 35432  74.0214   1.7334 0012439 330.4221  29.6273 15.23987911876038"
      },
      "geometry": {
        "type": "Point",
        "coordinates": [
          -159.63748421675797,
          -49.61797926990437
        ]
      }
    },
    {
      "type": "Feature",
      "properties": {
        "norad_id": 35433,
        "name": "COSMOS 2251 DEB",
        "group": "cosmos-2251-debris",
        "lat": -40.59312758058305,
        "lon": -48.66837165478208,
        "alt_km": 773.2536243897403,
        "timestamp": "2025-12-19T18:58:41.982032+00:00",
        "meta_object_name": "COSMOS 2251 DEB",
        "meta_object_id": "1993-036AKB",
        "meta_epoch": "2025-12-10T18:27:52.031808",
        "meta_mean_motion": 14.34742553,
        "meta_eccentricity": 0.00254013,
        "meta_inclination": 74.0339,
        "meta_ra_of_asc_node": 342.0559,
        "meta_arg_of_pericenter": 37.4572,
        "meta_mean_anomaly": 142.4072,
        "meta_ephemeris_type": 0,
        "meta_classification_type": "U",
        "meta_norad_cat_id": 35433,
        "meta_element_set_no": 999,
        "meta_rev_at_epoch": 86552,
        "meta_bstar": 0.00041847558,
        "meta_mean_motion_dot": 1.164e-05,
        "meta_mean_motion_ddot": 0,
        "tle_line1": "1 35433U 93036AKB 25344.76935222  .00001164  00000+0  41848-3 0  9992",
        "tle_line2": "2 35433  74.0339 342.0559 0025401  37.4572 142.4072 14.34742553865528"
      },
      "geometry": {
        "type": "Point",
        "coordinates": [
          -48.66837165478208,
          -40.59312758058305
        ]
      }
    }
  ]
}